{"type": "FeatureCollection", "features": [ {"type": "Feature", "properties": {"norad_id": 66535, "name": "STARLINK-35514", "group": "last-30-days", "lat": 42.85990816562234, "lon": 139.47702852835124, "alt_km": 408.721463355213, "timestamp": "2025-12-14T09:36:21.778365+00:00", "meta": {"OBJECT_NAME": "STARLINK-35514", "OBJECT_ID": "2025-265V", "EPOCH": "2025-12-13T11:33:42.005088", "MEAN_MOTION": 15.50597247, "ECCENTRICITY": 0.00017387, "INCLINATION": 43.001, "RA_OF_ASC_NODE": 49.5903, "ARG_OF_PERICENTER": 265.5641, "MEAN_ANOMALY": 94.502, "EPHEMERIS_TYPE": 0, "CLASSIFICATION_TYPE": "U", "NORAD_CAT_ID": 66535, "ELEMENT_SET_NO": 999, "REV_AT_EPOCH": 387, "BSTAR": 0.001926222, "MEAN_MOTION_DOT": 0.00114401, "MEAN_MOTION_DDOT": 0}, "tle": {"line1": "1 66535U 25265V   25347.48173617  .00114401  00000+0  19262-2 0  9995", "line2": "2 66535  43.0010  49.5903 0001738 265.5641  94.5020 15.50597247  3876"}}, "geometry": {"type": "Point", "coordinates": [139.47702852835124, 42.85990816562234]}}, {"type": "Feature", "properties": {"norad_id": 66536, "name": "STARLINK-35640", "group": "last-30-days", "lat": 42.69664039922664, "lon": 142.2672811533261, "alt_km": 408.25810026241106, "timestamp": "2025-12-14T09:36:21.778376+00:00", "meta": {"OBJECT_NAME": "STARLINK-35640", "OBJECT_ID": "2025-265W", "EPOCH": "2025-12-13T11:33:12.984192", "MEAN_MOTION": 15.50643538, "ECCENTRICITY": 0.00012826, "INCLINATION": 43.0005, "RA_OF_ASC_NODE": 49.587, "ARG_OF_PERICENTER": 261.8207, "MEAN_ANOMALY": 98.2508, "EPHEMERIS_TYPE": 0, "CLASSIFICATION_TYPE": "U", "NORAD_CAT_ID": 66536, "ELEMENT_SET_NO": 999, "REV_AT_EPOCH": 387, "BSTAR": 0.0020363353, "MEAN_MOTION_DOT": 0.00121266, "MEAN_MOTION_DDOT": 0}, "tle": {"line1": "1 66536U 25265W   25347.48140028  .00121266  00000+0  20363-2 0  9997", "line2": "2 66536  43.0005  49.5870 0001282 261.8207  98.2508 15.50643538  3872"}}, "geometry": {"type": "Point", "coordinates": [142.2672811533261, 42.69664039922664]}}, {"type": "Feature", "properties": {"norad_id": 66537, "name": "STARLINK-35582", "group": "last-30-days", "lat": 42.494420895699506, "lon": 144.7445622617452, "alt_km": 408.7287601937587, "timestamp": "2025-12-14T09:36:21.778388+00:00", "meta": {"OBJECT_NAME": "STARLINK-35582", "OBJECT_ID": "2025-265X", "EPOCH": "2025-12-13T11:32:42.275904", "MEAN_MOTION": 15.50582536, "ECCENTRICITY": 0.00018086, "INCLINATION": 43.0007, "RA_OF_ASC_NODE": 49.5849, "ARG_OF_PERICENTER": 276.8829, "MEAN_ANOMALY": 83.1826, "EPHEMERIS_TYPE": 0, "CLASSIFICATION_TYPE": "U", "NORAD_CAT_ID": 66537, "ELEMENT_SET_NO": 999, "REV_AT_EPOCH": 387, "BSTAR": 0.0023354292, "MEAN_MOTION_DOT": 0.00139147, "MEAN_MOTION_DDOT": 0}, "tle": {"line1": "1 66537U 25265X   25347.48104486  .00139147  00000+0  23354-2 0  9996", "line2": "2 66537  43.0007  49.5849 0001808 276.8829  83.1826 15.50582536  3877"}}, "geometry": {"type": "Point", "coordinates": [144.7445622617452, 42.494420895699506]}}, {"type": "Feature", "properties": {"norad_id": 66538, "name": "STARLINK-35577", "group": "last-30-days", "lat": 42.25936020204758, "lon": 147.02137051697574, "alt_km": 408.89064325850995, "timestamp": "2025-12-14T09:36:21.778400+00:00", "meta": {"OBJECT_NAME": "STARLINK-35577", "OBJECT_ID": "2025-265Y", "EPOCH": "2025-12-13T13:04:58.713600", "MEAN_MOTION": 15.50582443, "ECCENTRICITY": 0.00015653, "INCLINATION": 43.0005, "RA_OF_ASC_NODE": 49.2048, "ARG_OF_PERICENTER": 281.3101, "MEAN_ANOMALY": 78.7583, "EPHEMERIS_TYPE": 0, "CLASSIFICATION_TYPE": "U", "NORAD_CAT_ID": 66538, "ELEMENT_SET_NO": 999, "REV_AT_EPOCH": 388, "BSTAR": 0.0015469304, "MEAN_MOTION_DOT": 0.00091488, "MEAN_MOTION_DDOT": 0}, "tle": {"line1": "1 66538U 25265Y   25347.54512400  .00091488  00000+0  15469-2 0  9996", "line2": "2 66538  43.0005  49.2048 0001565 281.3101  78.7583 15.50582443  3886"}}, "geometry": {"type": "Point", "coordinates": [147.02137051697574, 42.25936020204758]}}, {"type": "Feature", "properties": {"norad_id": 66539, "name": "STARLINK-35697", "group": "last-30-days", "lat": 41.91453114817127, "lon": 149.75882273136568, "alt_km": 409.11976816865536, "timestamp": "2025-12-14T09:36:21.778411+00:00", "meta": {"OBJECT_NAME": "STARLINK-35697", "OBJECT_ID": "2025-265Z", "EPOCH": "2025-12-13T11:31:43.347648", "MEAN_MOTION": 15.50611347, "ECCENTRICITY": 0.00019959, "INCLINATION": 43.0008, "RA_OF_ASC_NODE": 49.5783, "ARG_OF_PERICENTER": 272.0822, "MEAN_ANOMALY": 87.9809, "EPHEMERIS_TYPE": 0, "CLASSIFICATION_TYPE": "U", "NORAD_CAT_ID": 66539, "ELEMENT_SET_NO": 999, "REV_AT_EPOCH": 387, "BSTAR": 0.0015488055, "MEAN_MOTION_DOT": 0.00091698, "MEAN_MOTION_DDOT": 0}, "tle": {"line1": "1 66539U 25265Z   25347.48036282  .00091698  00000+0  15488-2 0  9993", "line2": "2 66539  43.0008  49.5783 0001995 272.0822  87.9809 15.50611347  3871"}}, "geometry": {"type": "Point", "coordinates": [149.75882273136568, 41.91453114817127]}}, {"type": "Feature", "properties": {"norad_id": 66540, "name": "STARLINK-35818", "group": "last-30-days", "lat": 41.47455419539603, "lon": 152.64552282308577, "alt_km": 408.7218238226378, "timestamp": "2025-12-14T09:36:21.778420+00:00", "meta": {"OBJECT_NAME": "STARLINK-35818", "OBJECT_ID": "2025-265AA", "EPOCH": "2025-12-13T11:31:14.025216", "MEAN_MOTION": 15.50679505, "ECCENTRICITY": 0.00018225, "INCLINATION": 43.0004, "RA_OF_ASC_NODE": 49.5753, "ARG_OF_PERICENTER": 269.8446, "MEAN_ANOMALY": 90.2205, "EPHEMERIS_TYPE": 0, "CLASSIFICATION_TYPE": "U", "NORAD_CAT_ID": 66540, "ELEMENT_SET_NO": 999, "REV_AT_EPOCH": 387, "BSTAR": 0.001971114, "MEAN_MOTION_DOT": 0.00117466, "MEAN_MOTION_DDOT": 0}, "tle": {"line1": "1 66540U 25265AA  25347.48002344  .00117466  00000+0  19711-2 0  9992", "line2": "2 66540  43.0004  49.5753 0001822 269.8446  90.2205 15.50679505  3878"}}, "geometry": {"type": "Point", "coordinates": [152.64552282308577, 41.47455419539603]}}, {"type": "Feature", "properties": {"norad_id": 66541, "name": "STARLINK-35796", "group": "last-30-days", "lat": 42.40027521700627, "lon": 122.7395567985153, "alt_km": 431.05268339120084, "timestamp": "2025-12-14T09:36:21.778431+00:00", "meta": {"OBJECT_NAME": "STARLINK-35796", "OBJECT_ID": "2025-265AB", "EPOCH": "2025-12-13T14:00:03.000384", "MEAN_MOTION": 15.46581122, "ECCENTRICITY": 7.392e-05, "INCLINATION": 43.0005, "RA_OF_ASC_NODE": 48.9851, "ARG_OF_PERICENTER": 303.384, "MEAN_ANOMALY": 269.8003, "EPHEMERIS_TYPE": 0, "CLASSIFICATION_TYPE": "U", "NORAD_CAT_ID": 66541, "ELEMENT_SET_NO": 999, "REV_AT_EPOCH": 513, "BSTAR": -0.044531283, "MEAN_MOTION_DOT": -0.02022477, "MEAN_MOTION_DDOT": 0}, "tle": {"line1": "1 66541U 25265AB  25347.58336806 -.02022477  00000+0 -44531-1 0  9995", "line2": "2 66541  43.0005  48.9851 0000739 303.3840 269.8003 15.46581122  5133"}}, "geometry": {"type": "Point", "coordinates": [122.7395567985153, 42.40027521700627]}}, {"type": "Feature", "properties": {"norad_id": 66542, "name": "STARLINK-35833", "group": "last-30-days", "lat": 40.589635393612596, "lon": 157.33844707592698, "alt_km": 409.1326597385996, "timestamp": "2025-12-14T09:36:21.778441+00:00", "meta": {"OBJECT_NAME": "STARLINK-35833", "OBJECT_ID": "2025-265AC", "EPOCH": "2025-12-13T11:30:14.496480", "MEAN_MOTION": 15.5060708, "ECCENTRICITY": 0.00020322, "INCLINATION": 43.0007, "RA_OF_ASC_NODE": 49.5704, "ARG_OF_PERICENTER": 273.1625, "MEAN_ANOMALY": 86.9003, "EPHEMERIS_TYPE": 0, "CLASSIFICATION_TYPE": "U", "NORAD_CAT_ID": 66542, "ELEMENT_SET_NO": 999, "REV_AT_EPOCH": 387, "BSTAR": 0.0022084112, "MEAN_MOTION_DOT": 0.00131548, "MEAN_MOTION_DDOT": 0}, "tle": {"line1": "1 66542U 25265AC  25347.47933445  .00131548  00000+0  22084-2 0  9992", "line2": "2 66542  43.0007  49.5704 0002032 273.1625  86.9003 15.50607080  3877"}}, "geometry": {"type": "Point", "coordinates": [157.33844707592698, 40.589635393612596]}}, {"type": "Feature", "properties": {"norad_id": 66543, "name": "STARLINK-35315", "group": "last-30-days", "lat": 40.04541995120823, "lon": 159.76606438153422, "alt_km": 409.00939361149904, "timestamp": "2025-12-14T09:36:21.778451+00:00", "meta": {"OBJECT_NAME": "STARLINK-35315", "OBJECT_ID": "2025-265AD", "EPOCH": "2025-12-13T11:29:44.881152", "MEAN_MOTION": 15.5060897, "ECCENTRICITY": 0.00018288, "INCLINATION": 43.0004, "RA_OF_ASC_NODE": 49.567, "ARG_OF_PERICENTER": 264.8456, "MEAN_ANOMALY": 95.2195, "EPHEMERIS_TYPE": 0, "CLASSIFICATION_TYPE": "U", "NORAD_CAT_ID": 66543, "ELEMENT_SET_NO": 999, "REV_AT_EPOCH": 387, "BSTAR": 0.0022590742, "MEAN_MOTION_DOT": 0.00134636, "MEAN_MOTION_DDOT": 0}, "tle": {"line1": "1 66543U 25265AD  25347.47899168  .00134636  00000+0  22591-2 0  9990", "line2": "2 66543  43.0004  49.5670 0001828 264.8456  95.2195 15.50608970  3872"}}, "geometry": {"type": "Point", "coordinates": [159.76606438153422, 40.04541995120823]}}, {"type": "Feature", "properties": {"norad_id": 66544, "name": "STARLINK-35728", "group": "last-30-days", "lat": 39.45862483323048, "lon": 162.12813279398262, "alt_km": 408.8335609798096, "timestamp": "2025-12-14T09:36:21.778475+00:00", "meta": {"OBJECT_NAME": "STARLINK-35728", "OBJECT_ID": "2025-265AE", "EPOCH": "2025-12-13T11:29:15.051552", "MEAN_MOTION": 15.50619035, "ECCENTRICITY": 0.00014677, "INCLINATION": 43.0006, "RA_OF_ASC_NODE": 49.565, "ARG_OF_PERICENTER": 251.633, "MEAN_ANOMALY": 108.4371, "EPHEMERIS_TYPE": 0, "CLASSIFICATION_TYPE": "U", "NORAD_CAT_ID": 66544, "ELEMENT_SET_NO": 999, "REV_AT_EPOCH": 387, "BSTAR": 0.0019435101, "MEAN_MOTION_DOT": 0.00115537, "MEAN_MOTION_DDOT": 0}, "tle": {"line1": "1 66544U 25265AE  25347.47864643  .00115537  00000+0  19435-2 0  9993", "line2": "2 66544  43.0006  49.5650 0001467 251.6330 108.4371 15.50619035  3874"}}, "geometry": {"type": "Point", "coordinates": [162.12813279398262, 39.45862483323048]}}]}